XRISM                   
1 57800U 23137A   26092.80796138  .00009214  00000+0  52046-3 0  9992
2 57800  31.0012 127.6308 0007870 281.4500  78.5255 15.11792770141444
ACS3                    
1 59588U 24077B   26093.25717737  .00028837  00000+0  22508-1 0  9999
2 59588  97.1956  28.8477 0073303  21.0974 339.3187 13.90815069 97618
HTV-X1                  
1 66174U 25241A   26093.23510325  .00004760  00000+0  16087-3 0  9990
2 66174  51.6362 314.7548 0007278 267.5183  92.4966 15.32512226 24705
SZ-21 MODULE            
1 66515U 25246C   26093.25289166  .00060256  00000+0  47388-3 0  9992
2 66515  41.4748  51.9348 0002891 225.3271 134.7336 15.70567905 21932
